USA 568                 
1 66551U 24134K   25336.66670139 -.01709685  00000+0 -74303-2 0  9990
2 66551  53.1571 236.7807 0000717 110.7411 313.9012 15.87051116  2624
GLOBAL-33               
1 66554U 25267A   25346.92448029  .00009167  00000+0  30146-3 0  9995
2 66554  42.0218  55.9266 0004181  56.2465 303.8771 15.31628839  3435
ELECTRON KICK STAGE R/B 
1 66555U 25267B   25346.91252300  .00033906  00000+0  10492-2 0  9999
2 66555  42.0199  55.8356 0006538  54.3056 305.8389 15.32821781  3435
STARLINK-35699          
1 66557U 25268A   25346.83335648 -.00028280  00000+0 -47798-3 0  9991
2 66557  42.9999 120.6533 0001437 275.5881 346.2771 15.50577695  4682
STARLINK-35695          
1 66558U 25268B   25346.83335648 -.00073425  00000+0 -12560-2 0  9991
2 66558  43.0000 120.6494 0003207 268.2851 355.4858 15.50606537  4683
STARLINK-35419          
1 66559U 25268C   25346.83335648  .00079131  00000+0  13407-2 0  9991
2 66559  42.9999 120.6451 0002828 252.0719  13.5102 15.50584815  4682
STARLINK-35411          
1 66560U 25268D   25346.83335648 -.00270418  00000+0 -47411-2 0  9998
2 66560  43.0000 120.6399 0001814 278.3958 349.2418 15.50715423  4680
STARLINK-35305          
1 66561U 25268E   25346.83335648 -.00103289  00000+0 -17749-2 0  9991
2 66561  43.0000 120.6305 0001319 273.9325 357.4956 15.50629043  4632
STARLINK-35579          
1 66562U 25268F   25346.83335648 -.00103031  00000+0 -17705-2 0  9999
2 66562  43.0001 120.6351 0001439 279.4574 350.0520 15.50628040  4682
STARLINK-35437          
1 66563U 25268G   25346.83335648 -.00119152  00000+0 -20519-2 0  9998
2 66563  43.0000 120.6253 0001472 274.3183 359.0228 15.50638402  4687
STARLINK-35358          
1 66564U 25268H   25346.83335648 -.00054242  00000+0 -92471-3 0  9994
2 66564  43.0001 120.6211 0001417 284.4652 350.8153 15.50592738  4637
STARLINK-35893          
1 66565U 25268J   25346.83335648 -.00083362  00000+0 -14285-2 0  9996
2 66565  43.0002 120.6159 0001475 266.7793  10.4098 15.50613843  4686
