CCSDS_OMM_VERS = 2.0
CREATION_DATE  = 
ORIGINATOR     = 

OBJECT_NAME    = USA 568
OBJECT_ID      = 2024-134K
CENTER_NAME    = EARTH
REF_FRAME      = TEME
TIME_SYSTEM    = UTC
MEAN_ELEMENT_THEORY = SGP/SGP4

EPOCH          = 2025-12-02T16:00:03.000096
MEAN_MOTION    = 15.87051116
ECCENTRICITY   = .0000717
INCLINATION    = 53.1571
RA_OF_ASC_NODE = 236.7807
ARG_OF_PERICENTER = 110.7411
MEAN_ANOMALY   = 313.9012

EPHEMERIS_TYPE = 0
CLASSIFICATION_TYPE = U
NORAD_CAT_ID   = 66551
ELEMENT_SET_NO = 999
REV_AT_EPOCH   = 262
BSTAR          = -.74303E-2
MEAN_MOTION_DOT = -.1709685E-1
MEAN_MOTION_DDOT = 0

CCSDS_OMM_VERS = 2.0
CREATION_DATE  = 
ORIGINATOR     = 

OBJECT_NAME    = GLOBAL-33
OBJECT_ID      = 2025-267A
CENTER_NAME    = EARTH
REF_FRAME      = TEME
TIME_SYSTEM    = UTC
MEAN_ELEMENT_THEORY = SGP/SGP4

EPOCH          = 2025-12-12T22:11:15.097056
MEAN_MOTION    = 15.31628839
ECCENTRICITY   = .00041818
INCLINATION    = 42.0218
RA_OF_ASC_NODE = 55.9266
ARG_OF_PERICENTER = 56.2465
MEAN_ANOMALY   = 303.8771

EPHEMERIS_TYPE = 0
CLASSIFICATION_TYPE = U
NORAD_CAT_ID   = 66554
ELEMENT_SET_NO = 999
REV_AT_EPOCH   = 343
BSTAR          = .3014631E-3
MEAN_MOTION_DOT = .9167E-4
MEAN_MOTION_DDOT = 0

CCSDS_OMM_VERS = 2.0
CREATION_DATE  = 
ORIGINATOR     = 

OBJECT_NAME    = ELECTRON KICK STAGE R/B
OBJECT_ID      = 2025-267B
CENTER_NAME    = EARTH
REF_FRAME      = TEME
TIME_SYSTEM    = UTC
MEAN_ELEMENT_THEORY = SGP/SGP4

EPOCH          = 2025-12-12T21:54:01.987200
MEAN_MOTION    = 15.32821781
ECCENTRICITY   = .00065385
INCLINATION    = 42.0199
RA_OF_ASC_NODE = 55.8356
ARG_OF_PERICENTER = 54.3056
MEAN_ANOMALY   = 305.8389

EPHEMERIS_TYPE = 0
CLASSIFICATION_TYPE = U
NORAD_CAT_ID   = 66555
ELEMENT_SET_NO = 999
REV_AT_EPOCH   = 343
BSTAR          = .10491581E-2
MEAN_MOTION_DOT = .33906E-3
MEAN_MOTION_DDOT = 0

CCSDS_OMM_VERS = 2.0
CREATION_DATE  = 
ORIGINATOR     = 

OBJECT_NAME    = STARLINK-35699
OBJECT_ID      = 2025-268A
CENTER_NAME    = EARTH
REF_FRAME      = TEME
TIME_SYSTEM    = UTC
MEAN_ELEMENT_THEORY = SGP/SGP4

EPOCH          = 2025-12-12T20:00:01.999872
MEAN_MOTION    = 15.50577695
ECCENTRICITY   = .00014372
INCLINATION    = 42.9999
RA_OF_ASC_NODE = 120.6533
ARG_OF_PERICENTER = 275.5881
MEAN_ANOMALY   = 346.2771

EPHEMERIS_TYPE = 0
CLASSIFICATION_TYPE = U
NORAD_CAT_ID   = 66557
ELEMENT_SET_NO = 999
REV_AT_EPOCH   = 468
BSTAR          = -.47797952E-3
MEAN_MOTION_DOT = -.2828E-3
MEAN_MOTION_DDOT = 0

CCSDS_OMM_VERS = 2.0
CREATION_DATE  = 
ORIGINATOR     = 

OBJECT_NAME    = STARLINK-35695
OBJECT_ID      = 2025-268B
CENTER_NAME    = EARTH
REF_FRAME      = TEME
TIME_SYSTEM    = UTC
MEAN_ELEMENT_THEORY = SGP/SGP4

EPOCH          = 2025-12-12T20:00:01.999872
MEAN_MOTION    = 15.50606537
ECCENTRICITY   = .00032071
INCLINATION    = 43.0000
RA_OF_ASC_NODE = 120.6494
ARG_OF_PERICENTER = 268.2851
MEAN_ANOMALY   = 355.4858

EPHEMERIS_TYPE = 0
CLASSIFICATION_TYPE = U
NORAD_CAT_ID   = 66558
ELEMENT_SET_NO = 999
REV_AT_EPOCH   = 468
BSTAR          = -.12559852E-2
MEAN_MOTION_DOT = -.73425E-3
MEAN_MOTION_DDOT = 0

CCSDS_OMM_VERS = 2.0
CREATION_DATE  = 
ORIGINATOR     = 

OBJECT_NAME    = STARLINK-35419
OBJECT_ID      = 2025-268C
CENTER_NAME    = EARTH
REF_FRAME      = TEME
TIME_SYSTEM    = UTC
MEAN_ELEMENT_THEORY = SGP/SGP4

EPOCH          = 2025-12-12T20:00:01.999872
MEAN_MOTION    = 15.50584815
ECCENTRICITY   = .00028289
INCLINATION    = 42.9999
RA_OF_ASC_NODE = 120.6451
ARG_OF_PERICENTER = 252.0719
MEAN_ANOMALY   = 13.5102

EPHEMERIS_TYPE = 0
CLASSIFICATION_TYPE = U
NORAD_CAT_ID   = 66559
ELEMENT_SET_NO = 999
REV_AT_EPOCH   = 468
BSTAR          = .13406684E-2
MEAN_MOTION_DOT = .79131E-3
MEAN_MOTION_DDOT = 0

CCSDS_OMM_VERS = 2.0
CREATION_DATE  = 
ORIGINATOR     = 

OBJECT_NAME    = STARLINK-35411
OBJECT_ID      = 2025-268D
CENTER_NAME    = EARTH
REF_FRAME      = TEME
TIME_SYSTEM    = UTC
MEAN_ELEMENT_THEORY = SGP/SGP4

EPOCH          = 2025-12-12T20:00:01.999872
MEAN_MOTION    = 15.50715423
ECCENTRICITY   = .00018144
INCLINATION    = 43.0000
RA_OF_ASC_NODE = 120.6399
ARG_OF_PERICENTER = 278.3958
MEAN_ANOMALY   = 349.2418

EPHEMERIS_TYPE = 0
CLASSIFICATION_TYPE = U
NORAD_CAT_ID   = 66560
ELEMENT_SET_NO = 999
REV_AT_EPOCH   = 468
BSTAR          = -.47410545E-2
MEAN_MOTION_DOT = -.270418E-2
MEAN_MOTION_DDOT = 0

CCSDS_OMM_VERS = 2.0
CREATION_DATE  = 
ORIGINATOR     = 

OBJECT_NAME    = STARLINK-35305
OBJECT_ID      = 2025-268E
CENTER_NAME    = EARTH
REF_FRAME      = TEME
TIME_SYSTEM    = UTC
MEAN_ELEMENT_THEORY = SGP/SGP4

EPOCH          = 2025-12-12T20:00:01.999872
MEAN_MOTION    = 15.50629043
ECCENTRICITY   = .00013196
INCLINATION    = 43.0000
RA_OF_ASC_NODE = 120.6305
ARG_OF_PERICENTER = 273.9325
MEAN_ANOMALY   = 357.4956

EPHEMERIS_TYPE = 0
CLASSIFICATION_TYPE = U
NORAD_CAT_ID   = 66561
ELEMENT_SET_NO = 999
REV_AT_EPOCH   = 463
BSTAR          = -.17749376E-2
MEAN_MOTION_DOT = -.103289E-2
MEAN_MOTION_DDOT = 0

CCSDS_OMM_VERS = 2.0
CREATION_DATE  = 
ORIGINATOR     = 

OBJECT_NAME    = STARLINK-35579
OBJECT_ID      = 2025-268F
CENTER_NAME    = EARTH
REF_FRAME      = TEME
TIME_SYSTEM    = UTC
MEAN_ELEMENT_THEORY = SGP/SGP4

EPOCH          = 2025-12-12T20:00:01.999872
MEAN_MOTION    = 15.50628040
ECCENTRICITY   = .00014393
INCLINATION    = 43.0001
RA_OF_ASC_NODE = 120.6351
ARG_OF_PERICENTER = 279.4574
MEAN_ANOMALY   = 350.0520

EPHEMERIS_TYPE = 0
CLASSIFICATION_TYPE = U
NORAD_CAT_ID   = 66562
ELEMENT_SET_NO = 999
REV_AT_EPOCH   = 468
BSTAR          = -.17704834E-2
MEAN_MOTION_DOT = -.103031E-2
MEAN_MOTION_DDOT = 0

CCSDS_OMM_VERS = 2.0
CREATION_DATE  = 
ORIGINATOR     = 

OBJECT_NAME    = STARLINK-35437
OBJECT_ID      = 2025-268G
CENTER_NAME    = EARTH
REF_FRAME      = TEME
TIME_SYSTEM    = UTC
MEAN_ELEMENT_THEORY = SGP/SGP4

EPOCH          = 2025-12-12T20:00:01.999872
MEAN_MOTION    = 15.50638402
ECCENTRICITY   = .00014723
INCLINATION    = 43.0000
RA_OF_ASC_NODE = 120.6253
ARG_OF_PERICENTER = 274.3183
MEAN_ANOMALY   = 359.0228

EPHEMERIS_TYPE = 0
CLASSIFICATION_TYPE = U
NORAD_CAT_ID   = 66563
ELEMENT_SET_NO = 999
REV_AT_EPOCH   = 468
BSTAR          = -.20518534E-2
MEAN_MOTION_DOT = -.119152E-2
MEAN_MOTION_DDOT = 0

CCSDS_OMM_VERS = 2.0
CREATION_DATE  = 
ORIGINATOR     = 

OBJECT_NAME    = STARLINK-35358
OBJECT_ID      = 2025-268H
CENTER_NAME    = EARTH
REF_FRAME      = TEME
TIME_SYSTEM    = UTC
MEAN_ELEMENT_THEORY = SGP/SGP4

EPOCH          = 2025-12-12T20:00:01.999872
MEAN_MOTION    = 15.50592738
ECCENTRICITY   = .00014175
INCLINATION    = 43.0001
RA_OF_ASC_NODE = 120.6211
ARG_OF_PERICENTER = 284.4652
MEAN_ANOMALY   = 350.8153

EPHEMERIS_TYPE = 0
CLASSIFICATION_TYPE = U
NORAD_CAT_ID   = 66564
ELEMENT_SET_NO = 999
REV_AT_EPOCH   = 463
BSTAR          = -.92471057E-3
MEAN_MOTION_DOT = -.54242E-3
MEAN_MOTION_DDOT = 0

CCSDS_OMM_VERS = 2.0
CREATION_DATE  = 
ORIGINATOR     = 

OBJECT_NAME    = STARLINK-35893
OBJECT_ID      = 2025-268J
CENTER_NAME    = EARTH
REF_FRAME      = TEME
TIME_SYSTEM    = UTC
MEAN_ELEMENT_THEORY = SGP/SGP4

EPOCH          = 2025-12-12T20:00:01.999872
MEAN_MOTION    = 15.50613843
ECCENTRICITY   = .00014755
INCLINATION    = 43.0002
RA_OF_ASC_NODE = 120.6159
ARG_OF_PERICENTER = 266.7793
MEAN_ANOMALY   = 10.4098

EPHEMERIS_TYPE = 0
CLASSIFICATION_TYPE = U
NORAD_CAT_ID   = 66565
ELEMENT_SET_NO = 999
REV_AT_EPOCH   = 468
BSTAR          = -.14285058E-2
MEAN_MOTION_DOT = -.83362E-3
MEAN_MOTION_DDOT = 0

